IRIDIUM 116             
1 43072U 17083C   23320.52601271  .00000313  00000+0  10480-3 0  9991
2 43072  86.3984 356.4108 0002232  90.3532 269.7920 14.34218437308917
IRIDIUM 130             
1 43073U 17083D   23320.14545528  .00000322  00000+0  10780-3 0  9995
2 43073  86.3994 356.7534 0002189  96.1078 264.0367 14.34218211308806
IRIDIUM 151             
1 43074U 17083E   23320.18985193  .00000329  00000+0  11047-3 0  9990
2 43074  86.3986 356.5876 0002082  87.9852 272.1582 14.34217729308830
IRIDIUM 134             
1 43075U 17083F   23320.15812301  .00000057  00000+0  13386-4 0  9995
2 43075  86.3990 356.5960 0002324  96.0406 264.1055 14.34211469308791
IRIDIUM 137             
1 43076U 17083G   23320.17082892  .00000333  00000+0  11169-3 0  9995
2 43076  86.3989 356.6649 0002377  85.5600 274.5868 14.34218371308866
IRIDIUM 141             
1 43077U 17083H   23320.16448589  .00000323  00000+0  10817-3 0  9992
2 43077  86.3985 356.5514 0001991  92.5017 267.6407 14.34218210308868
IRIDIUM 153             
1 43078U 17083J   23320.74457986  .00000198  00000+0  63630-4 0  9990
2 43078  86.3945 324.7662 0001852  95.1170 265.0237 14.34216759310054
IRIDIUM 131             
1 43079U 17083K   23320.15180688  .00000319  00000+0  10686-3 0  9995
2 43079  86.3990 356.6796 0002056  94.0746 266.0685 14.34215797308798
